     3.01           N: GNSS NAV DATA    M: Mixed            RINEX VERSION / TYPE
CONVBIN 2.4.3                           20171125 153650 UTC PGM / RUN BY / DATE 
log: /home/reach/logs/ref_201711251243.rtcm3                COMMENT             
format: RTCM 3, station ID: 0                               COMMENT             
GPSA   0.0000E+00  0.0000E+00  0.0000E+00  0.0000E+00       IONOSPHERIC CORR    
GPSB   0.0000E+00  0.0000E+00  0.0000E+00  0.0000E+00       IONOSPHERIC CORR    
GAL    0.0000E+00  0.0000E+00  0.0000E+00  0.0000E+00       IONOSPHERIC CORR    
QZSA   0.0000E+00  0.0000E+00  0.0000E+00  0.0000E+00       IONOSPHERIC CORR    
QZSB   0.0000E+00  0.0000E+00  0.0000E+00  0.0000E+00       IONOSPHERIC CORR    
GPUT  0.0000000000E+00 0.000000000E+00      0    0          TIME SYSTEM CORR    
GAUT  0.0000000000E+00 0.000000000E+00      0    0          TIME SYSTEM CORR    
     0                                                      LEAP SECONDS        
                                                            END OF HEADER       
G30 2017 11 25 14  0  0  .125462189317E-03 -.272848410532E-11  .000000000000E+00
      .640000000000E+02  .205312500000E+02  .485270213452E-08  .300705988944E+01
      .998377799988E-06  .300243194215E-02  .780820846558E-05  .515359994125E+04
      .568800000000E+06 -.931322574615E-08 -.245961108774E+01 -.149011611938E-07
      .946329456912E+00  .221593750000E+03 -.306225101800E+01 -.815033949435E-08
     -.351443210449E-09  .000000000000E+00  .197600000000E+04  .000000000000E+00
      .485000000000E+01  .000000000000E+00  .372529029846E-08  .640000000000E+02
      .564191000000E+06  .400000000000E+01
R 1 2017 11 25 12 45  0  .185063108802E-04  .000000000000E+00  .564150000000E+06
     -.187835937500E+04  .272495269775E+00  .000000000000E+00  .000000000000E+00
     -.217181987305E+05 -.179456996918E+01 -.931322574615E-09  .100000000000E+01
     -.132388286133E+05  .290769577026E+01  .186264514923E-08  .000000000000E+00
R 7 2017 11 25 12 45  0 -.230828300118E-04  .000000000000E+00  .563640000000E+06
      .118319169922E+05 -.632528305054E+00 -.931322574615E-09  .000000000000E+00
     -.145086235352E+05  .228741168976E+01 -.931322574615E-09  .500000000000E+01
      .173685234375E+05  .234206581116E+01 -.931322574615E-09  .000000000000E+00
R 8 2017 11 25 12 45  0 -.269478186965E-04  .000000000000E+00  .564150000000E+06
      .671905761719E+04 -.220700263977E+00 -.931322574615E-09  .000000000000E+00
     -.245074614258E+05  .260922431946E+00 -.931322574615E-09  .600000000000E+01
      .226225146484E+04  .355032348633E+01  .000000000000E+00  .000000000000E+00
R 9 2017 11 25 12 45  0  .478047877550E-04  .909494701773E-12  .564060000000E+06
      .199593540039E+05  .101437568665E+01  .931322574615E-09  .000000000000E+00
      .129392690430E+05  .779231071472E+00  .186264514923E-08 -.200000000000E+01
     -.928119628906E+04  .325541496277E+01 -.931322574615E-09  .000000000000E+00
R10 2017 11 25 12 45  0  .121556222439E-04  .909494701773E-12  .564150000000E+06
      .131830292969E+05  .221547317505E+01  .931322574615E-09  .000000000000E+00
     -.125166113281E+04  .200399684906E+01  .931322574615E-09 -.700000000000E+01
     -.218314409180E+05  .121633720398E+01  .931322574615E-09  .000000000000E+00
R11 2017 11 25 12 45  0 -.154376029968E-04 -.909494701773E-12  .564150000000E+06
     -.119026611328E+04  .201541996002E+01  .000000000000E+00  .000000000000E+00
     -.147582993164E+05  .201073455811E+01  .000000000000E+00  .000000000000E+00
     -.207378999023E+05 -.154881000519E+01  .186264514923E-08  .000000000000E+00
R12 2017 11 25 12 45  0 -.234944745898E-04  .000000000000E+00  .564150000000E+06
     -.145318837891E+05  .775153160095E+00  .000000000000E+00  .000000000000E+00
     -.190219433594E+05  .958222389221E+00 -.931322574615E-09 -.100000000000E+01
     -.891616113281E+04 -.330107116699E+01  .186264514923E-08  .000000000000E+00
R19 2017 11 25 12 45  0 -.346433371305E-04 -.909494701773E-12  .564150000000E+06
      .523443310547E+04 -.305739974976E+01  .186264514923E-08  .000000000000E+00
      .941874023438E+04  .836278915405E+00  .186264514923E-08  .300000000000E+01
     -.231185292969E+05 -.352191925049E+00  .931322574615E-09  .000000000000E+00
R20 2017 11 25 12 45  0 -.317005440593E-03 -.909494701773E-12  .564150000000E+06
      .213869052734E+05 -.188707447052E+01  .931322574615E-09  .000000000000E+00
      .569455078125E+03  .335240364075E+00  .186264514923E-08  .200000000000E+01
     -.139166552734E+05 -.288080978394E+01  .000000000000E+00  .000000000000E+00
R21 2017 11 25 12 45  0  .144074670970E-03  .909494701773E-12  .564150000000E+06
      .237455488281E+05  .363203048706E+00  .000000000000E+00  .000000000000E+00
     -.869658447266E+04 -.324480056763E+00  .000000000000E+00  .400000000000E+01
      .321912011719E+04 -.355983734131E+01 -.931322574615E-09  .000000000000E+00
